[{"OBJECT_NAME":"GEOSCAN 5 (RS92S5)","OBJECT_ID":"2025-155R","EPOCH":"2026-03-09T22:01:07.273920","MEAN_MOTION":15.30265233,"ECCENTRICITY":0.00070849,"INCLINATION":97.4462,"RA_OF_ASC_NODE":37.7456,"ARG_OF_PERICENTER":154.5846,"MEAN_ANOMALY":205.5745,"EPHEMERIS_TYPE":0,"CLASSIFICATION_TYPE":"U","NORAD_CAT_ID":64891,"ELEMENT_SET_NO":999,"REV_AT_EPOCH":6562,"BSTAR":0.00068639307,"MEAN_MOTION_DOT":0.00020065,"MEAN_MOTION_DDOT":0},{"OBJECT_NAME":"STARLINK-36396","OBJECT_ID":"2026-012B","EPOCH":"2026-03-09T01:21:07.493472","MEAN_MOTION":15.27601176,"ECCENTRICITY":0.00014579,"INCLINATION":42.9987,"RA_OF_ASC_NODE":318.1145,"ARG_OF_PERICENTER":44.7291,"MEAN_ANOMALY":315.3678,"EPHEMERIS_TYPE":0,"CLASSIFICATION_TYPE":"U","NORAD_CAT_ID":67494,"ELEMENT_SET_NO":999,"REV_AT_EPOCH":766,"BSTAR":0.0011705378,"MEAN_MOTION_DOT":0.0003211,"MEAN_MOTION_DDOT":0}]
